*******************************************************************************
JPL/HORIZONS              1294 Antwerpia (1933 UB1)        2023-Sep-04 11:11:19
Rec #:    1294 (+COV) Soln.date: 2023-Aug-21_21:20:00   # obs: 3744 (1917-2023)
 
IAU76/J2000 helio. ecliptic osc. elements (au, days, deg., period=Julian yrs):
 
  EPOCH=  2457443.5 ! 2016-Feb-25.00 (TDB)         Residual RMS= .25138
   EC= .2342099075278189   QR= 2.056677768907723   TP= 2457928.4815810602
   OM= 81.14048398561029   W=  313.2963261014066   IN= 8.727667926112419
   A= 2.685693885472194    MA= 251.3963170340549   ADIST= 3.314710002036666
   PER= 4.40142            N= .223933624           ANGMOM= .027406847
   DAN= 2.18709            DDN= 3.02408            L= 34.7699853
   B= -6.3405395           MOID= 1.07591999        TP= 2017-Jun-23.9815810602
 
Asteroid physical parameters (km, seconds, rotational period in hours):
   GM= n.a.                RAD= 18.5995            ROTPER= 6.63
   H= 10.72                G= .150                 B-V= n.a.
                           ALBEDO= .117            STYP= C

ASTEROID comments: 
1: soln ref.= JPL#61, OCC=0
2: source=ORB
*******************************************************************************


*******************************************************************************
Ephemeris / API_USER Mon Sep  4 11:11:19 2023 Pasadena, USA      / Horizons
*******************************************************************************
Target body name: 1294 Antwerpia (1933 UB1)       {source: JPL#61}
Center body name: Solar System Barycenter (0)     {source: DE441}
Center-site name: BODY CENTER
*******************************************************************************
Start time      : A.D. 2023-Aug-12 00:00:00.0000 TDB
Stop  time      : A.D. 2023-Aug-13 00:00:00.0000 TDB
Step-size       : 2880 minutes
*******************************************************************************
Center geodetic : 0.0, 0.0, 0.0                   {E-lon(deg),Lat(deg),Alt(km)}
Center cylindric: 0.0, 0.0, 0.0                   {E-lon(deg),Dxy(km),Dz(km)}
Center radii    : (undefined)
Small perturbers: Yes                             {source: SB441-N16}
Output units    : KM-S
Calendar mode   : Mixed Julian/Gregorian
Output type     : GEOMETRIC cartesian states
Output format   : 2 (position and velocity)
Reference frame : Ecliptic of J2000.0
*******************************************************************************
Initial IAU76/J2000 heliocentric ecliptic osculating elements (au, days, deg.):
  EPOCH=  2457443.5 ! 2016-Feb-25.00 (TDB)         Residual RMS= .25138        
   EC= .2342099075278189   QR= 2.056677768907723   TP= 2457928.4815810602      
   OM= 81.14048398561029   W=  313.2963261014066   IN= 8.727667926112419       
  Equivalent ICRF heliocentric cartesian coordinates (au, au/d):
   X=-3.581576868722358E-01  Y=-2.728252714060456E+00  Z=-1.200439524266529E+00
  VX= 9.186808089910152E-03 VY= 1.297131946785736E-03 VZ=-9.353673013466901E-04
Asteroid physical parameters (km, seconds, rotational period in hours):        
   GM= n.a.                RAD= 18.5995            ROTPER= 6.63                
   H= 10.72                G= .150                 B-V= n.a.                   
                           ALBEDO= .117            STYP= C                     
*******************************************************************************
JDTDB
   X     Y     Z
   VX    VY    VZ
*******************************************************************************
$$SOE
2460168.500000000 = A.D. 2023-Aug-12 00:00:00.0000 TDB 
 X =-4.718269744366014E+08 Y =-7.586708804458213E+07 Z = 6.949673541241977E+07
 VX= 4.429872866884210E-01 VY=-1.487376467686341E+01 VZ=-4.197231978840401E-01
$$EOE
*******************************************************************************
 
TIME

  Barycentric Dynamical Time ("TDB" or T_eph) output was requested. This
continuous coordinate time is equivalent to the relativistic proper time
of a clock at rest in a reference frame co-moving with the solar system
barycenter but outside the system's gravity well. It is the independent
variable in the solar system relativistic equations of motion.

  TDB runs at a uniform rate of one SI second per second and is independent
of irregularities in Earth's rotation.
 
CALENDAR SYSTEM

  Mixed calendar mode was active such that calendar dates after AD 1582-Oct-15
(if any) are in the modern Gregorian system. Dates prior to 1582-Oct-5 (if any)
are in the Julian calendar system, which is automatically extended for dates
prior to its adoption on 45-Jan-1 BC.  The Julian calendar is useful for
matching historical dates. The Gregorian calendar more accurately corresponds
to the Earth's orbital motion and seasons. A "Gregorian-only" calendar mode is
available if such physical events are the primary interest.

REFERENCE FRAME AND COORDINATES

  Ecliptic at the standard reference epoch

    Reference epoch: J2000.0
    X-Y plane: adopted Earth orbital plane at the reference epoch
               Note: IAU76 obliquity of 84381.448 arcseconds wrt ICRF X-Y plane
    X-axis   : ICRF
    Z-axis   : perpendicular to the X-Y plane in the directional (+ or -) sense
               of Earth's north pole at the reference epoch.

  Symbol meaning:

    JDTDB    Julian Day Number, Barycentric Dynamical Time
      X      X-component of position vector (km)
      Y      Y-component of position vector (km)
      Z      Z-component of position vector (km)
      VX     X-component of velocity vector (km/sec)                           
      VY     Y-component of velocity vector (km/sec)                           
      VZ     Z-component of velocity vector (km/sec)                           

ABERRATIONS AND CORRECTIONS

 Geometric state vectors have NO corrections or aberrations applied.

Computations by ...

    Solar System Dynamics Group, Horizons On-Line Ephemeris System
    4800 Oak Grove Drive, Jet Propulsion Laboratory
    Pasadena, CA  91109   USA

    General site: https://ssd.jpl.nasa.gov/
    Mailing list: https://ssd.jpl.nasa.gov/email_list.html
    System news : https://ssd.jpl.nasa.gov/horizons/news.html
    User Guide  : https://ssd.jpl.nasa.gov/horizons/manual.html
    Connect     : browser        https://ssd.jpl.nasa.gov/horizons/app.html#/x
                  API            https://ssd-api.jpl.nasa.gov/doc/horizons.html
                  command-line   telnet ssd.jpl.nasa.gov 6775
                  e-mail/batch   https://ssd.jpl.nasa.gov/ftp/ssd/hrzn_batch.txt
                  scripts        https://ssd.jpl.nasa.gov/ftp/ssd/SCRIPTS
    Author      : Jon.D.Giorgini@jpl.nasa.gov
*******************************************************************************
